OBJECT_NAME,OBJECT_ID,EPOCH,MEAN_MOTION,ECCENTRICITY,INCLINATION,RA_OF_ASC_NODE,ARG_OF_PERICENTER,MEAN_ANOMALY,EPHEMERIS_TYPE,CLASSIFICATION_TYPE,NORAD_CAT_ID,ELEMENT_SET_NO,REV_AT_EPOCH,BSTAR,MEAN_MOTION_DOT,MEAN_MOTION_DDOT
AETHER-10,2026-004U,2026-06-27T22:41:56.906592,14.86285174,.00028624,97.8041,177.4063,109.7290,250.4235,0,U,67381,999,2488,.79750792E-4,.648E-5,0
AETHER-11,2026-004V,2026-06-27T22:32:09.263040,14.86314193,.00018212,97.8033,177.3968,130.8513,229.2860,0,U,67382,999,2488,.80836978E-4,.658E-5,0
AETHER-12,2026-004W,2026-06-27T22:12:56.090880,14.86299500,.0005085,97.8009,177.2121,90.5408,269.6390,0,U,67383,999,2487,.83852281E-4,.685E-5,0
CAPELLA-19 (ACADIA-9),2026-004X,2026-06-27T13:32:22.076160,14.86645916,.00015976,97.7995,176.7522,92.4725,267.6674,0,U,67384,999,2481,.54702729E-3,.4804E-4,0
CAPELLA-18 (ACADIA-8),2026-004Y,2026-06-27T17:00:41.766336,14.86641219,.00014805,97.8005,177.0458,91.0795,269.0591,0,U,67385,999,2484,.52633086E-3,.462E-4,0
TWILIGHT-1 OBJECT Z,2026-004Z,2026-06-27T22:10:15.428352,14.88883635,.00044997,97.7996,177.5033,90.3808,269.7925,0,U,67386,999,2489,.215342E-3,.1965E-4,0
LEMUR-2-KATIE,2026-004AA,2026-06-27T13:31:31.172736,14.90109927,.00046868,97.8032,177.4471,71.9515,288.2213,0,U,67387,999,2485,.34979585E-3,.3328E-4,0
LEMUR-2-HCS-BAZUS,2026-004AB,2026-06-27T23:09:56.321280,14.90172714,.00041405,97.8020,177.8239,69.6807,290.4856,0,U,67388,999,2491,.52113119E-3,.4994E-4,0
HYDRA-2,2026-004AC,2026-06-27T17:46:23.158848,15.18681170,.00017314,97.4574,177.6617,332.4970,27.6172,0,U,67389,999,2535,.35485611E-3,.7292E-4,0
CONNECTA IOT-16,2026-004AD,2026-06-27T19:03:44.206560,15.17937076,.00025634,97.4581,177.5923,330.4827,29.6261,0,U,67390,999,2535,.14881533E-3,.2953E-4,0
FLAMINGO-1,2026-004AE,2026-06-27T21:40:49.237824,15.17659380,.00042056,97.4549,177.6534,299.7319,60.3496,0,U,67391,999,2537,.10327796E-3,.2012E-4,0
HAWK-13A,2026-004AF,2026-06-27T17:35:54.672288,15.19226685,.00038243,97.4426,177.4536,307.3943,52.6943,0,U,67392,999,2536,.23165234E-3,.4812E-4,0
HAWK-13C,2026-004AG,2026-06-27T19:10:33.010752,15.19227797,.00037846,97.4578,177.9088,312.4165,47.6749,0,U,67393,999,2537,.21953071E-3,.4556E-4,0
TWILIGHT-1 OBJECT AH,2026-004AH,2026-06-27T13:35:52.979424,15.19513357,.00070794,97.4487,177.5208,307.5461,52.5130,0,U,67394,999,2534,.19916899E-3,.4163E-4,0
PANDORA,2026-004AJ,2026-06-27T22:17:47.292576,14.88091045,.00068598,97.8038,177.4194,93.0827,267.1175,0,U,67395,999,2487,.10344552E-3,.897E-5,0
HAWK-13B,2026-004AK,2026-06-27T19:10:24.604896,15.19227686,.00049919,97.4517,177.7456,306.3515,53.7258,0,U,67396,999,2537,.22131151E-3,.4594E-4,0
CARBSAR,2026-004AL,2026-06-27T23:24:14.888448,15.19712073,.00038674,97.4533,178.0120,311.5841,48.5062,0,U,67397,999,2540,.3932014E-3,.8335E-4,0
TOMORROW-S10,2026-004AM,2026-06-27T17:21:43.596000,15.19574800,.00046863,97.4572,177.8150,321.8677,38.2225,0,U,67398,999,2536,.41456307E-3,.8757E-4,0
TOMORROW-S11,2026-004AN,2026-06-27T23:00:56.070720,15.19623857,.00057654,97.4560,178.0884,317.3331,42.7455,0,U,67399,999,2540,.23128454E-3,.4861E-4,0
CONNECTA IOT-13,2026-004AP,2026-06-27T21:10:43.095936,15.18018342,.00072846,97.4557,177.7284,322.9271,37.1459,0,U,67400,999,2537,.1556382E-3,.31E-4,0
CONNECTA IOT-14,2026-004AQ,2026-06-27T22:43:39.070272,15.18576263,.00081295,97.4504,177.8233,309.8784,50.1735,0,U,67401,999,2539,.15316503E-3,.31E-4,0
CONNECTA IOT-15,2026-004AR,2026-06-27T22:48:05.193504,15.17781602,.0001772,97.4562,177.6476,315.3331,44.7760,0,U,67402,999,2536,.15223491E-3,.3008E-4,0
SHIJIAN-29B (SJ-29B),2025-315C,2026-06-27T23:27:36.946080,1.00271216,.00045768,3.4236,94.8487,37.1091,209.2032,0,U,67403,999,179,0,-.59E-6,0
STARLINK-36484,2026-005A,2026-06-27T19:48:23.157792,15.27600842,.00016754,43.0025,335.7159,280.4885,79.5778,0,U,67404,999,2554,.73885044E-3,.20138E-3,0
STARLINK-36452,2026-005B,2026-06-27T19:40:58.895904,15.27591835,.000132,43.0024,335.6721,258.2036,101.8667,0,U,67405,999,2554,.6467478E-3,.17584E-3,0
STARLINK-36409,2026-005C,2026-06-27T19:00:29.082528,15.27607850,.00015442,42.9962,336.3289,280.3933,79.6744,0,U,67406,999,2553,.84008205E-3,.22947E-3,0
STARLINK-36510,2026-005D,2026-06-27T18:51:14.148288,15.27601530,.00015918,43.0022,336.2737,280.6646,79.4027,0,U,67407,999,2553,.78650071E-3,.21458E-3,0
STARLINK-36509,2026-005E,2026-06-27T16:54:50.569344,15.27622564,.00029103,43.0046,336.5301,280.3366,79.7157,0,U,67408,999,2551,.60646899E-3,.16486E-3,0
STARLINK-36507,2026-005F,2026-06-27T19:11:34.964736,15.27607180,.00015683,43.0000,336.3783,289.6864,70.3819,0,U,67409,999,2553,.85528787E-3,.23368E-3,0
STARLINK-36508,2026-005G,2026-06-27T19:26:23.605152,15.27594730,.00016243,43.0026,336.4608,270.9868,89.0797,0,U,67410,999,2553,.11247187E-2,.30831E-3,0
STARLINK-36503,2026-005H,2026-06-27T20:08:44.183328,15.27603537,.00017097,43.0034,335.8117,277.4532,82.6126,0,U,67411,999,2554,.74202828E-3,.20228E-3,0
STARLINK-36446,2026-005J,2026-06-27T21:52:08.813568,15.27593635,.00015846,43.0013,335.4947,264.9025,95.1646,0,U,67412,999,2555,.61645231E-3,.16747E-3,0
STARLINK-36442,2026-005K,2026-06-27T12:01:19.515648,15.27563962,.00029482,43.0021,337.5744,171.4148,188.6755,0,U,67413,999,2549,.79656204E-3,.21713E-3,0
STARLINK-36506,2026-005L,2026-06-27T19:59:28.379040,15.27606547,.00019986,43.0027,335.7621,269.9407,90.1216,0,U,67414,999,2554,.66028169E-3,.17967E-3,0
STARLINK-36468,2026-005M,2026-06-27T17:48:32.253408,15.27594051,.00007061,43.0005,336.8056,296.8894,63.1885,0,U,67415,999,2552,.6310615E-3,.17151E-3,0
STARLINK-36487,2026-005N,2026-06-27T19:15:16.787232,15.27599043,.00011216,43.0023,336.3997,272.5419,87.5304,0,U,67416,999,2553,.10317337E-2,.28254E-3,0
STARLINK-36374,2026-005P,2026-06-27T20:30:56.523168,15.27597349,.00014975,42.9999,335.9327,266.6403,93.4278,0,U,67417,999,2554,.70806171E-3,.19284E-3,0
STARLINK-36455,2026-005Q,2026-06-27T17:11:31.452000,15.27595980,.00013094,42.9993,336.6060,268.2542,91.8160,0,U,67418,999,2552,.42564637E-3,.11475E-3,0
STARLINK-36424,2026-005R,2026-06-27T12:06:51.284736,15.27591795,.00014851,43.0021,337.6005,257.0108,103.0578,0,U,67419,999,2549,.88076304E-3,.24062E-3,0
STARLINK-35564,2026-005S,2026-06-27T18:53:05.246592,15.27598706,.00014388,43.0003,336.2793,281.1159,78.9531,0,U,67420,999,2553,.77268338E-3,.21073E-3,0
STARLINK-36431,2026-005T,2026-06-27T17:46:40.920096,15.27607607,.00008331,43.0007,336.7964,286.3922,73.6838,0,U,67421,999,2552,.89678136E-3,.24518E-3,0
STARLINK-36418,2026-005U,2026-06-27T19:46:32.057760,15.27594295,.00014731,43.0032,335.6987,265.5944,94.4739,0,U,67422,999,2554,.105316E-2,.28845E-3,0
STARLINK-36465,2026-005V,2026-06-27T17:35:35.118240,15.27593556,.00015623,43.0011,336.7414,282.4842,77.5835,0,U,67423,999,2552,.7105691E-3,.19351E-3,0
STARLINK-36362,2026-005W,2026-06-27T21:57:41.782752,15.27601120,.00014813,43.0002,335.5203,270.5658,89.5024,0,U,67424,999,2555,.77142743E-3,.2104E-3,0
STARLINK-36447,2026-005X,2026-06-27T18:38:17.145312,15.27592626,.00015597,43.0001,336.2038,280.5760,79.4916,0,U,67425,999,2553,.59530144E-3,.16162E-3,0
STARLINK-36146,2026-005Y,2026-06-27T17:54:05.425632,15.27582679,.00010897,43.0030,336.8353,264.4179,95.6548,0,U,67426,999,2551,.54888617E-3,.14874E-3,0
STARLINK-36459,2026-005Z,2026-06-27T17:42:59.786208,15.27569725,.00009893,43.0014,336.7716,276.1663,83.9076,0,U,67427,999,2551,.60885687E-3,.16525E-3,0
STARLINK-36464,2026-005AA,2026-06-27T17:05:58.749792,15.27592651,.00016181,43.0012,336.5742,275.2335,84.8332,0,U,67428,999,2551,.67245867E-3,.18296E-3,0
STARLINK-36513,2026-005AB,2026-06-27T16:56:43.733472,15.27592306,.00018034,43.0041,336.5295,279.9829,80.0819,0,U,67429,999,2551,.68222069E-3,.18565E-3,0
STARLINK-36515,2026-005AC,2026-06-27T19:02:19.891392,15.27609146,.00015694,43.0006,336.3294,285.2370,74.8308,0,U,67430,999,2552,.9070302E-3,.24804E-3,0
STARLINK-36443,2026-005AD,2026-06-27T04:12:22.565952,15.27582947,.0001798,43.0025,339.4224,270.5715,89.4931,0,U,67431,999,2544,.88153445E-3,.24077E-3,0
STARLINK-36460,2026-005AE,2026-06-27T17:57:46.772928,15.27607709,.00014691,43.0022,336.8476,282.0377,78.0310,0,U,67432,999,2551,.89068273E-3,.24349E-3,0
YAOGAN-50 01,2026-006A,2026-06-27T19:17:10.445568,13.83240837,.00010059,142.0381,267.0650,273.5486,86.5118,0,U,67433,999,2290,.14467519E-3,.348E-5,0
HULIANWANG DIGUI-137,2026-007A,2026-06-27T21:45:24.863328,13.29326268,.0000935,50.0090,47.4077,50.5282,309.5673,0,U,67435,999,2221,.76538929E-4,-.89E-6,0
HULIANWANG DIGUI-138,2026-007B,2026-06-27T22:09:29.379744,13.29324614,.00009285,50.0072,47.4659,49.5049,310.5904,0,U,67436,999,2221,.73958486E-4,-.9E-6,0
HULIANWANG DIGUI-139,2026-007C,2026-06-27T21:57:16.421760,13.29327538,.0000965,50.0039,47.3817,38.7518,321.3423,0,U,67437,999,2221,.79559922E-4,-.87E-6,0
HULIANWANG DIGUI-140,2026-007D,2026-06-27T22:21:29.763936,13.29325348,.00009082,50.0067,47.5025,50.5707,309.5246,0,U,67438,999,2221,.70586463E-4,-.91E-6,0
HULIANWANG DIGUI-141,2026-007E,2026-06-27T21:33:20.946240,13.29326170,.00009178,50.0055,47.3193,50.4286,309.6667,0,U,67439,999,2221,.79836713E-4,-.87E-6,0
HULIANWANG DIGUI-142,2026-007F,2026-06-27T21:21:20.989728,13.29325836,.00008984,50.0133,47.3814,50.8625,309.2327,0,U,67440,999,2221,.71783629E-4,-.91E-6,0
HULIANWANG DIGUI-143,2026-007G,2026-06-27T21:09:21.420288,13.29324298,.00007571,50.0114,47.3117,51.2161,308.8778,0,U,67441,999,2221,.5896952E-4,-.97E-6,0
HULIANWANG DIGUI-144,2026-007H,2026-06-27T22:45:23.870016,13.29328578,.00008968,50.0102,46.9844,54.0221,306.0734,0,U,67442,999,2222,.65050849E-4,-.94E-6,0
HULIANWANG DIGUI-145,2026-007J,2026-06-27T22:33:34.491456,13.29325072,.00008698,50.0106,46.9470,51.1255,308.9695,0,U,67443,999,2222,.70375936E-4,-.91E-6,0
STARLINK-36542,2026-008A,2026-06-27T16:47:55.086432,15.27598045,.00012481,43.0009,304.2350,276.0069,84.0640,0,U,67445,999,2639,.56943594E-3,.15449E-3,0
STARLINK-36539,2026-008B,2026-06-27T17:08:16.334880,15.27604804,.00015723,42.9994,304.3367,282.5953,77.4722,0,U,67446,999,2639,.70448366E-3,.19189E-3,0
